OTTER                   
1 62623U 25009Q   26068.72300813  .00012198  00000+0  45151-3 0  9990
2 62623  97.4065 151.3812 0003573 310.7710  49.3219 15.27809545 63722
STARLINK-35292          
1 66322U 25253D   26068.40741777  .00042324  00000+0  15378-2 0  9995
2 66322  43.0000 213.9049 0001924 267.9538  92.1093 15.27599112 20202
